ARIANE 5 R/B            
1 28499U 04049H   25317.40876942  .00002303  00000+0  26080-3 0  9993
2 28499  98.2512 116.6432 0084862   8.7971 351.4706 14.84924373128534
CZ-2D R/B               
1 28738U 05024B   25317.45379303  .00051062  00000+0  86689-3 0  9994
2 28738  97.3666 324.1733 0008231  87.8788 272.3406 15.51285482121717
ALOS (DAICHI)           
1 28931U 06002A   25317.61890742  .00004872  00000+0  83246-3 0  9992
2 28931  98.1041 269.3218 0001045  53.8408 306.2894 14.69352630 56436
H-2A R/B                
1 28932U 06002B   25317.64186717  .00020474  00000+0  10958-2 0  9991
2 28932  98.2299  90.0369 0054505 275.8945  83.6073 15.13779918 76866
RESURS-DK 1             
1 29228U 06021A   25317.58997910  .00006841  00000+0  40399-3 0  9994
2 29228  69.9326 177.1573 0007149 283.5527  76.4842 15.11930723 69978
CZ-4B R/B               
1 29507U 06046C   25317.58839475  .00012530  00000+0  65631-3 0  9990
2 29507  97.5786 357.8071 0033096 311.4528  48.3862 15.15465692 42453
CZ-2C R/B               
1 31114U 07010B   25317.55119868  .00000394  00000+0  20066-3 0  9991
2 31114  98.3961  71.6732 0057917 271.9034  87.5511 14.20192353963239
COSMO-SKYMED 1          
1 31598U 07023A   25317.61815586  .00013384  00000+0  12131-2 0  9994
2 31598  97.8864 142.8321 0001474  82.7237 277.4151 14.95471986997541
COSMOS 2428             
1 31792U 07029A   25317.64040544 -.00000114  00000+0 -35310-4 0  9998
2 31792  70.9366  86.9714 0002154  75.2995 284.8364 14.12888860947707
SL-16 R/B               
1 31793U 07029B   25317.53308660  .00000468  00000+0  26713-3 0  9999
2 31793  70.9767  56.5490 0002138 259.3530 111.3130 14.14810003948947
KORONAS-FOTON           
1 33504U 09003A   25317.26864861  .00022855  00000+0  56509-3 0  9995
2 33504  82.4336  36.6159 0011088 210.0271 150.0341 15.40269024927807
CZ-2C R/B               
1 37731U 11030B   25317.62666763  .00004671  00000+0  59864-3 0  9998
2 37731  97.8363 272.3888 0053428   9.8640 162.8156 14.80751945772915
