CCSDS_OMM_VERS = 2.0
CREATION_DATE  = 
ORIGINATOR     = 

OBJECT_NAME    = ARIANE 5 R/B
OBJECT_ID      = 2004-049H
CENTER_NAME    = EARTH
REF_FRAME      = TEME
TIME_SYSTEM    = UTC
MEAN_ELEMENT_THEORY = SGP/SGP4

EPOCH          = 2025-11-13T09:48:37.677888
MEAN_MOTION    = 14.84924373
ECCENTRICITY   = .00848624
INCLINATION    = 98.2512
RA_OF_ASC_NODE = 116.6432
ARG_OF_PERICENTER = 8.7971
MEAN_ANOMALY   = 351.4706

EPHEMERIS_TYPE = 0
CLASSIFICATION_TYPE = U
NORAD_CAT_ID   = 28499
ELEMENT_SET_NO = 999
REV_AT_EPOCH   = 12853
BSTAR          = .26080217E-3
MEAN_MOTION_DOT = .2303E-4
MEAN_MOTION_DDOT = 0

CCSDS_OMM_VERS = 2.0
CREATION_DATE  = 
ORIGINATOR     = 

OBJECT_NAME    = CZ-2D R/B
OBJECT_ID      = 2005-024B
CENTER_NAME    = EARTH
REF_FRAME      = TEME
TIME_SYSTEM    = UTC
MEAN_ELEMENT_THEORY = SGP/SGP4

EPOCH          = 2025-11-13T10:53:27.717792
MEAN_MOTION    = 15.51285482
ECCENTRICITY   = .0008231
INCLINATION    = 97.3666
RA_OF_ASC_NODE = 324.1733
ARG_OF_PERICENTER = 87.8788
MEAN_ANOMALY   = 272.3406

EPHEMERIS_TYPE = 0
CLASSIFICATION_TYPE = U
NORAD_CAT_ID   = 28738
ELEMENT_SET_NO = 999
REV_AT_EPOCH   = 12171
BSTAR          = .8668931E-3
MEAN_MOTION_DOT = .51062E-3
MEAN_MOTION_DDOT = 0

CCSDS_OMM_VERS = 2.0
CREATION_DATE  = 
ORIGINATOR     = 

OBJECT_NAME    = ALOS (DAICHI)
OBJECT_ID      = 2006-002A
CENTER_NAME    = EARTH
REF_FRAME      = TEME
TIME_SYSTEM    = UTC
MEAN_ELEMENT_THEORY = SGP/SGP4

EPOCH          = 2025-11-13T14:51:13.601088
MEAN_MOTION    = 14.69352630
ECCENTRICITY   = .00010456
INCLINATION    = 98.1041
RA_OF_ASC_NODE = 269.3218
ARG_OF_PERICENTER = 53.8408
MEAN_ANOMALY   = 306.2894

EPHEMERIS_TYPE = 0
CLASSIFICATION_TYPE = U
NORAD_CAT_ID   = 28931
ELEMENT_SET_NO = 999
REV_AT_EPOCH   = 5643
BSTAR          = .83245795E-3
MEAN_MOTION_DOT = .4872E-4
MEAN_MOTION_DDOT = 0

CCSDS_OMM_VERS = 2.0
CREATION_DATE  = 
ORIGINATOR     = 

OBJECT_NAME    = H-2A R/B
OBJECT_ID      = 2006-002B
CENTER_NAME    = EARTH
REF_FRAME      = TEME
TIME_SYSTEM    = UTC
MEAN_ELEMENT_THEORY = SGP/SGP4

EPOCH          = 2025-11-13T15:24:17.323488
MEAN_MOTION    = 15.13779918
ECCENTRICITY   = .00545053
INCLINATION    = 98.2299
RA_OF_ASC_NODE = 90.0369
ARG_OF_PERICENTER = 275.8945
MEAN_ANOMALY   = 83.6073

EPHEMERIS_TYPE = 0
CLASSIFICATION_TYPE = U
NORAD_CAT_ID   = 28932
ELEMENT_SET_NO = 999
REV_AT_EPOCH   = 7686
BSTAR          = .10958112E-2
MEAN_MOTION_DOT = .20474E-3
MEAN_MOTION_DDOT = 0

CCSDS_OMM_VERS = 2.0
CREATION_DATE  = 
ORIGINATOR     = 

OBJECT_NAME    = RESURS-DK 1
OBJECT_ID      = 2006-021A
CENTER_NAME    = EARTH
REF_FRAME      = TEME
TIME_SYSTEM    = UTC
MEAN_ELEMENT_THEORY = SGP/SGP4

EPOCH          = 2025-11-13T14:09:34.194240
MEAN_MOTION    = 15.11930723
ECCENTRICITY   = .00071494
INCLINATION    = 69.9326
RA_OF_ASC_NODE = 177.1573
ARG_OF_PERICENTER = 283.5527
MEAN_ANOMALY   = 76.4842

EPHEMERIS_TYPE = 0
CLASSIFICATION_TYPE = U
NORAD_CAT_ID   = 29228
ELEMENT_SET_NO = 999
REV_AT_EPOCH   = 6997
BSTAR          = .40398781E-3
MEAN_MOTION_DOT = .6841E-4
MEAN_MOTION_DDOT = 0

CCSDS_OMM_VERS = 2.0
CREATION_DATE  = 
ORIGINATOR     = 

OBJECT_NAME    = CZ-4B R/B
OBJECT_ID      = 2006-046C
CENTER_NAME    = EARTH
REF_FRAME      = TEME
TIME_SYSTEM    = UTC
MEAN_ELEMENT_THEORY = SGP/SGP4

EPOCH          = 2025-11-13T14:07:17.306400
MEAN_MOTION    = 15.15465692
ECCENTRICITY   = .00330966
INCLINATION    = 97.5786
RA_OF_ASC_NODE = 357.8071
ARG_OF_PERICENTER = 311.4528
MEAN_ANOMALY   = 48.3862

EPHEMERIS_TYPE = 0
CLASSIFICATION_TYPE = U
NORAD_CAT_ID   = 29507
ELEMENT_SET_NO = 999
REV_AT_EPOCH   = 4245
BSTAR          = .65630532E-3
MEAN_MOTION_DOT = .1253E-3
MEAN_MOTION_DDOT = 0

CCSDS_OMM_VERS = 2.0
CREATION_DATE  = 
ORIGINATOR     = 

OBJECT_NAME    = CZ-2C R/B
OBJECT_ID      = 2007-010B
CENTER_NAME    = EARTH
REF_FRAME      = TEME
TIME_SYSTEM    = UTC
MEAN_ELEMENT_THEORY = SGP/SGP4

EPOCH          = 2025-11-13T13:13:43.565952
MEAN_MOTION    = 14.20192353
ECCENTRICITY   = .00579179
INCLINATION    = 98.3961
RA_OF_ASC_NODE = 71.6732
ARG_OF_PERICENTER = 271.9034
MEAN_ANOMALY   = 87.5511

EPHEMERIS_TYPE = 0
CLASSIFICATION_TYPE = U
NORAD_CAT_ID   = 31114
ELEMENT_SET_NO = 999
REV_AT_EPOCH   = 96323
BSTAR          = .20065998E-3
MEAN_MOTION_DOT = .394E-5
MEAN_MOTION_DDOT = 0

CCSDS_OMM_VERS = 2.0
CREATION_DATE  = 
ORIGINATOR     = 

OBJECT_NAME    = COSMO-SKYMED 1
OBJECT_ID      = 2007-023A
CENTER_NAME    = EARTH
REF_FRAME      = TEME
TIME_SYSTEM    = UTC
MEAN_ELEMENT_THEORY = SGP/SGP4

EPOCH          = 2025-11-13T14:50:08.666304
MEAN_MOTION    = 14.95471986
ECCENTRICITY   = .00014748
INCLINATION    = 97.8864
RA_OF_ASC_NODE = 142.8321
ARG_OF_PERICENTER = 82.7237
MEAN_ANOMALY   = 277.4151

EPHEMERIS_TYPE = 0
CLASSIFICATION_TYPE = U
NORAD_CAT_ID   = 31598
ELEMENT_SET_NO = 999
REV_AT_EPOCH   = 99754
BSTAR          = .12130592E-2
MEAN_MOTION_DOT = .13384E-3
MEAN_MOTION_DDOT = 0

CCSDS_OMM_VERS = 2.0
CREATION_DATE  = 
ORIGINATOR     = 

OBJECT_NAME    = COSMOS 2428
OBJECT_ID      = 2007-029A
CENTER_NAME    = EARTH
REF_FRAME      = TEME
TIME_SYSTEM    = UTC
MEAN_ELEMENT_THEORY = SGP/SGP4

EPOCH          = 2025-11-13T15:22:11.030016
MEAN_MOTION    = 14.12888860
ECCENTRICITY   = .00021544
INCLINATION    = 70.9366
RA_OF_ASC_NODE = 86.9714
ARG_OF_PERICENTER = 75.2995
MEAN_ANOMALY   = 284.8364

EPHEMERIS_TYPE = 0
CLASSIFICATION_TYPE = U
NORAD_CAT_ID   = 31792
ELEMENT_SET_NO = 999
REV_AT_EPOCH   = 94770
BSTAR          = -.3531033E-4
MEAN_MOTION_DOT = -.114E-5
MEAN_MOTION_DDOT = 0

CCSDS_OMM_VERS = 2.0
CREATION_DATE  = 
ORIGINATOR     = 

OBJECT_NAME    = SL-16 R/B
OBJECT_ID      = 2007-029B
CENTER_NAME    = EARTH
REF_FRAME      = TEME
TIME_SYSTEM    = UTC
MEAN_ELEMENT_THEORY = SGP/SGP4

EPOCH          = 2025-11-13T12:47:38.682240
MEAN_MOTION    = 14.14810003
ECCENTRICITY   = .00021387
INCLINATION    = 70.9767
RA_OF_ASC_NODE = 56.5490
ARG_OF_PERICENTER = 259.3530
MEAN_ANOMALY   = 111.3130

EPHEMERIS_TYPE = 0
CLASSIFICATION_TYPE = U
NORAD_CAT_ID   = 31793
ELEMENT_SET_NO = 999
REV_AT_EPOCH   = 94894
BSTAR          = .26712848E-3
MEAN_MOTION_DOT = .468E-5
MEAN_MOTION_DDOT = 0

CCSDS_OMM_VERS = 2.0
CREATION_DATE  = 
ORIGINATOR     = 

OBJECT_NAME    = KORONAS-FOTON
OBJECT_ID      = 2009-003A
CENTER_NAME    = EARTH
REF_FRAME      = TEME
TIME_SYSTEM    = UTC
MEAN_ELEMENT_THEORY = SGP/SGP4

EPOCH          = 2025-11-13T06:26:51.239904
MEAN_MOTION    = 15.40269024
ECCENTRICITY   = .00110885
INCLINATION    = 82.4336
RA_OF_ASC_NODE = 36.6159
ARG_OF_PERICENTER = 210.0271
MEAN_ANOMALY   = 150.0341

EPHEMERIS_TYPE = 0
CLASSIFICATION_TYPE = U
NORAD_CAT_ID   = 33504
ELEMENT_SET_NO = 999
REV_AT_EPOCH   = 92780
BSTAR          = .56508895E-3
MEAN_MOTION_DOT = .22855E-3
MEAN_MOTION_DDOT = 0

CCSDS_OMM_VERS = 2.0
CREATION_DATE  = 
ORIGINATOR     = 

OBJECT_NAME    = CZ-2C R/B
OBJECT_ID      = 2011-030B
CENTER_NAME    = EARTH
REF_FRAME      = TEME
TIME_SYSTEM    = UTC
MEAN_ELEMENT_THEORY = SGP/SGP4

EPOCH          = 2025-11-13T15:02:24.083232
MEAN_MOTION    = 14.80751945
ECCENTRICITY   = .00534288
INCLINATION    = 97.8363
RA_OF_ASC_NODE = 272.3888
ARG_OF_PERICENTER = 9.8640
MEAN_ANOMALY   = 162.8156

EPHEMERIS_TYPE = 0
CLASSIFICATION_TYPE = U
NORAD_CAT_ID   = 37731
ELEMENT_SET_NO = 999
REV_AT_EPOCH   = 77291
BSTAR          = .59863859E-3
MEAN_MOTION_DOT = .4671E-4
MEAN_MOTION_DDOT = 0

